# From MPEC 2015-E14
C/2013 A1 (Siding Spring),h,10/25.2946/2014,129.0428,300.9767,2.4168,1.000309,1.398678,2000,8.2,2.4
# From MPC 84024
P/2013 A2 (Scotti),e,3.3654,355.8116,134.6342,4.004561,0.1229905,0.45587890,92.7915,03/04.0/2015,2000,g 15.5,4.0
# From MPC 82721
P/2013 AL76 (Catalina),e,144.8666,145.9486,27.2503,6.501011,0.0594611,0.68479386,48.2014,03/04.0/2015,2000,g 16.0,4.0
# From MPC 87915
C/2013 B2 (Catalina),h,07/01.5837/2013,43.4623,331.9541,156.4756,1.001644,3.735507,2000,11.0,4.0
# From MPEC 2015-E14
C/2013 C2 (Tenagra),e,21.3410,247.5174,308.7330,16.05360,0.0153231,0.43119989,357.2757,03/04.0/2015,2000,g  4.0,4.0
# From MPC 86642
P/2013 CU129 (PANSTARRS),e,12.1493,46.2090,211.9519,2.877888,0.2018800,0.72204478,115.9052,03/04.0/2015,2000,g 18.0,2.0
# From MPC 84024
C/2013 D1 (Holvorcem),e,10.0934,294.9697,252.6647,11.26508,0.0260677,0.78161315,17.9629,03/04.0/2015,2000,g 14.0,4.0
# From MPC 90270
C/2013 E1 (McNaught),h,06/13.7600/2013,158.7176,134.0352,311.5509,1.000710,7.785527,2000,5.5,4.0
# From MPC 88327
C/2013 E2 (Iwamoto),e,21.8664,182.4875,95.7603,219.6727,0.0003027,0.99357254,0.0000,03/08.9898/2013,2000,g 11.5,4.0
# From MPC 88695
P/2013 EW90 (Tenagra),e,31.8056,160.3386,346.3091,4.109870,0.1182938,0.19641668,103.1242,03/04.0/2015,2000,g 12.0,4.0
# From MPC 84626
C/2013 F1 (Boattini),h,12/02.6050/2012,79.6390,30.1032,92.0081,1.002731,1.860184,2000,13.0,4.0
# From MPC 88695
C/2013 F2 (Catalina),e,61.7657,344.2677,123.0849,2906,0.0000063,0.99785879,0.0000,04/19.7001/2013,2000,g  7.0,4.0
# From MPC 84933
C/2013 F3 (McNaught),e,85.4484,266.1001,18.7320,611.9207,0.0000651,0.99631916,0.0000,05/25.0983/2013,2000,g 12.0,4.0
# From MPC 91612
P/2013 G1 (Kowalski),e,5.4688,221.4651,51.2180,6.876691,0.0546556,0.51248984,24.4976,03/04.0/2015,2000,g 11.0,4.0
# From MPC 84933
C/2013 G2 (McNaught),h,12/06.4154/2012,95.9915,274.1014,293.8662,1.000249,2.151923,2000,11.5,4.0
# From MPC 92272
C/2013 G3 (PANSTARRS),h,11/15.2001/2014,64.6692,208.1227,76.5005,1.000545,3.852168,2000,9.0,4.0
# From MPC 84025
P/2013 G4 (PANSTARRS),e,5.9252,339.7413,214.5307,4.434097,0.1055592,0.41076754,79.3525,03/04.0/2015,2000,g 15.0,4.0
# From MPC 84318
C/2013 G5 (Catalina),h,09/01.3190/2013,40.6020,144.2353,165.6994,1.000084,0.929248,2000,14.0,4.0
# From MPC 87478
C/2013 G6 (Lemmon),e,124.0826,44.5752,215.7072,357.7257,0.0001457,0.99427166,0.0000,07/25.1451/2013,2000,g 13.5,4.0
# From MPC 92272
C/2013 G7 (McNaught),e,105.0990,48.3915,218.2711,1578,0.0000157,0.99703518,0.0000,03/18.7319/2014,2000,g  7.5,4.0
# From MPC 90767
C/2013 G8 (PANSTARRS),e,27.6178,241.0016,80.1521,2029,0.0000108,0.99746667,0.0000,11/14.6644/2013,2000,g  8.5,4.0
# From MPEC 2015-E14
C/2013 G9 (Tenagra),h,01/14.8030/2015,146.2305,35.6877,204.9503,1.000894,5.337527,2000,7.0,4.0
# From MPC 84933
C/2013 H1 (La Sagra),e,27.0840,84.9586,136.5754,187.6435,0.0003834,0.98589828,0.0000,05/19.7289/2013,2000,g 13.0,4.0
# From MPEC 2015-E14
C/2013 H2 (Boattini),h,01/22.9788/2014,128.3918,262.7384,35.9834,1.000106,7.498608,2000,6.5,4.0
# From MPC 91613
P/2013 J2 (McNaught),e,15.4952,289.3947,37.9016,6.241231,0.0632119,0.65572500,35.2780,03/04.0/2015,2000,g 13.0,4.0
# From MPC 87916
C/2013 J3 (McNaught),e,118.2097,200.7528,320.9509,1329,0.0000203,0.99699901,0.0000,02/22.6420/2013,2000,g 10.0,4.0
# From MPC 87066
P/2013 J4 (PANSTARRS),e,5.0352,84.0011,118.7706,2.475100,0.2531133,0.23099371,359.9443,11/04.0/2013,2000,g 14.0,4.0
# From MPC 84319
C/2013 J5 (Boattini),e,136.0078,256.7546,19.1244,1824,0.0000127,0.99731012,0.0000,11/29.4459/2012,2000,g 10.0,4.0
# From MPC 84627
C/2013 J6 (Catalina),e,85.0351,68.4079,125.6157,59.72331,0.0021354,0.95956934,1.4809,03/04.0/2015,2000,g 14.5,4.0
# From MPC 84319
C/2013 K1 (Christensen),e,42.3434,125.9022,171.3335,77.72865,0.0014382,0.98779587,0.0000,05/30.0250/2013,2000,g 18.0,4.0
# From MPC 87916
C/2013 L2 (Catalina),e,106.7758,285.8710,1.8577,15539,0.0000005,0.99968667,0.0000,05/10.4742/2012,2000,g  8.0,4.0
# From MPC 86229
P/2013 N3 (PANSTARRS),e,2.1708,17.6750,323.9370,7.417900,0.0487846,0.59169219,18.7979,03/04.0/2015,2000,g 13.0,4.0
# From MPC 88328
C/2013 N4 (Borisov),e,37.0344,322.5968,142.3210,47.99382,0.0029643,0.97475804,0.0000,08/21.4665/2013,2000,g 12.0,4.0
# From MPC 85834
P/2013 N5 (PANSTARRS),e,23.2847,187.4219,176.7148,6.825640,0.0552699,0.73218531,33.6885,03/04.0/2015,2000,g 17.0,4.0
# From MPC 87479
P/2013 O2 (PANSTARRS),e,13.3146,207.5822,213.6988,3.824691,0.1317679,0.43952961,58.3529,03/04.0/2015,2000,g 14.0,4.0
# From MPC 90767
C/2013 O3 (McNaught),e,102.8353,276.7470,337.9291,772.5755,0.0000459,0.99588501,0.0000,09/09.8355/2013,2000,g 11.5,4.0
# From MPC 85834
P/2013 P1 (PANSTARRS),e,18.7068,160.8025,138.0133,8.572655,0.0392673,0.60475115,28.9144,03/04.0/2015,2000,g 12.0,4.0
# From MPEC 2015-E14
C/2013 P2 (PANSTARRS),e,125.5351,2.0306,104.9898,2095,0.0000103,0.99864668,0.0000,02/17.0698/2014,2000,g 11.5,4.0
# From MPC 92272
C/2013 P3 (Palomar),h,11/23.7839/2014,93.9138,177.2755,177.1812,1.001220,8.646398,2000,5.5,4.0
# From MPEC 2015-E14
C/2013 P4 (PANSTARRS),e,4.2649,256.6034,113.5620,14.74929,0.0173999,0.59543945,3.5447,03/04.0/2015,2000,g  7.5,4.0
# From MPC 88696
C/2013 PE67 (Catalina-Spacewatch),e,116.7471,325.9510,59.5992,56.43962,0.0023245,0.96720638,1.0452,03/04.0/2015,2000,g 14.0,4.0
# From MPC 92272
C/2013 R1 (Lovejoy),e,64.0244,70.7069,67.1740,529.8099,0.0000808,0.99846763,0.0000,12/22.7510/2013,2000,g  7.0,4.0
# From MPC 86643
P/2013 R3 (Catalina-PANSTARRS),e,0.8985,342.6952,8.5798,3.038063,0.1861268,0.27340778,107.0002,03/04.0/2015,2000,g 14.0,4.0
# From unp
P/2013 R3-A (Catalina-PANSTARRS),e,0.8976,342.6538,8.6648,3.037899,0.1861419,0.27331615,106.9859,03/04.0/2015,2000,g  9.0,4.0
# From unp
P/2013 R3-B (Catalina-PANSTARRS),e,0.8993,342.7125,8.6058,3.037882,0.1861434,0.27330194,106.9875,03/04.0/2015,2000,g  9.0,4.0
# From MPC 86230
C/2013 S1 (Catalina),e,83.9616,221.5457,166.0693,30616,0.0000002,0.99990774,0.0000,08/02.8737/2013,2000,g 13.0,4.0
# From MPC 85835
P/2013 T1 (PANSTARRS),e,24.2061,10.2145,346.0227,5.874765,0.0692179,0.62318024,40.1904,03/04.0/2015,2000,g 16.5,4.0
# From MPC 86643
P/2013 T2 (Schwartz),e,9.3976,2.1063,343.5049,3.409937,0.1565253,0.52851308,97.1093,03/04.0/2015,2000,g 16.0,4.0
# From MPEC 2015-E14
C/2013 TW5 (Spacewatch),e,31.4104,319.7075,190.4345,360.2686,0.0001441,0.98381502,0.0000,08/18.2342/2014,2000,g  7.5,4.0
# From MPC 88696
P/2013 TL117 (Lemmon),e,9.3650,3.3518,112.2221,3.604545,0.1440219,0.68983396,54.5538,03/04.0/2015,2000,g 17.5,4.0
# From MPC 86643
C/2013 U1 (Catalina),e,23.9410,211.2399,143.1802,11.93547,0.0239026,0.79725792,11.2406,03/04.0/2015,2000,g 13.5,4.0
# From MPEC 2015-E14
C/2013 U2 (Holvorcem),e,43.0986,6.9877,107.4080,960.7323,0.0000331,0.99467399,0.0000,10/26.0644/2014,2000,g  7.5,4.0
# From MPEC 2015-E14
C/2013 UQ4 (Catalina),e,145.2586,317.6633,23.3202,60.41479,0.0020989,0.98210404,0.0000,07/05.9534/2014,2000,g 13.5,4.0
# From MPEC 2015-E14
C/2013 US10 (Catalina),h,11/15.7076/2015,148.8766,186.1410,340.3533,1.000372,0.822958,2000,4.4,4.0
# From MPC 92273
C/2013 V1 (Boattini),h,04/21.2309/2014,65.3058,72.8113,48.0385,1.001336,1.661050,2000,10.5,4.0
# From MPEC 2015-E14
C/2013 V2 (Borisov),h,10/14.3730/2014,37.8507,48.4171,94.4833,1.004079,3.507961,2000,7.0,4.0
# From MPC 88329
C/2013 V3 (Nevski),e,32.1342,100.9168,339.6332,12.68072,0.0218267,0.89062864,10.6989,03/04.0/2015,2000,g 14.0,4.0
# From MPEC 2015-E14
C/2013 V4 (Catalina),h,10/07.4975/2015,67.8501,55.6185,40.4387,1.002716,5.185467,2000,6.0,4.0
# From MPEC 2015-E14
C/2013 V5 (Oukaimeden),e,154.8845,278.6165,314.5749,465.5743,0.0000981,0.99865652,0.0000,09/28.2215/2014,2000,g  9.0,4.0
# From MPC 91613
P/2013 W1 (PANSTARRS),e,4.6996,117.8545,1.3298,3.485191,0.1514831,0.59373820,54.6615,03/04.0/2015,2000,g 17.5,4.0
# From MPEC 2015-E14
C/2013 W2 (PANSTARRS),e,4.5802,179.6607,307.2687,10.49388,0.0289935,0.57649578,1.6979,03/04.0/2015,2000,g 13.5,2.0
# From MPEC 2015-E14
C/2013 X1 (PANSTARRS),h,04/20.7530/2016,163.2301,130.9490,164.4611,1.000869,1.314237,2000,10.5,2.0
# From MPC 90768
C/2013 Y2 (PANSTARRS),e,29.4125,243.3979,308.8562,222.0096,0.0002980,0.99135567,0.0000,06/13.6752/2014,2000,g 12.0,4.0
# From MPC 87480
P/2013 YG46 (Spacewatch),e,7.8327,49.8291,240.9979,3.289115,0.1652287,0.45581419,245.1429,03/04.0/2015,2000,g 10.0,4.0
# From MPC 89728
P/2014 A2 (Hill),e,24.5134,106.6703,356.2154,5.918105,0.0684589,0.64939037,33.6653,03/04.0/2015,2000,g 15.0,4.0
# From MPEC 2015-E14
P/2014 A3 (PANSTARRS),e,13.6753,230.4948,212.8285,4.666206,0.0977818,0.24062753,67.2274,03/04.0/2015,2000,g 12.0,4.0
# From MPEC 2015-E14
C/2014 A4 (SONEAR),h,09/05.8761/2015,121.3549,29.7288,356.7893,1.000590,4.180288,2000,6.0,4.0
# From MPEC 2015-E14
C/2014 A5 (PANSTARRS),e,31.9945,310.0979,182.4422,96.86608,0.0010338,0.95045198,0.2107,03/04.0/2015,2000,g 10.0,4.0
# From MPEC 2015-E14
C/2014 AA52 (Catalina),h,02/27.6480/2015,105.2113,330.4930,292.2633,1.000448,2.002595,2000,10.0,4.0
# From MPEC 2015-E14
C/2014 B1 (Schwartz),h,09/06.6745/2017,28.3664,161.4018,345.6141,1.003771,9.568045,2000,4.0,4.0
# From MPC 88696
P/2014 C1 (TOTAS),e,2.6821,167.9449,24.2266,3.070741,0.1831637,0.45020640,80.5076,03/04.0/2015,2000,g 15.5,4.0
# From MPC 88697
C/2014 C2 (STEREO),e,135.4851,283.3414,56.0013,651.7821,0.0000592,0.99921528,0.0000,02/18.2496/2014,2000,g 18.0,4.0
# From MPC 90272
C/2014 C3 (NEOWISE),e,151.7941,204.4945,345.9411,108.4022,0.0008733,0.98282790,0.0000,01/16.7211/2014,2000,g 14.0,4.0
# From MPC 91614
P/2014 E1 (Larson),e,15.9779,39.0828,185.8276,3.713086,0.1377532,0.42337172,39.3910,03/04.0/2015,2000,g 14.0,4.0
# From MPEC 2015-E14
C/2014 E2 (Jacques),e,156.3919,56.4013,344.0478,763.3403,0.0000467,0.99913028,0.0000,07/02.5226/2014,2000,g  7.1,4.4
# From MPC 90769
C/2014 F1 (Hill),e,108.2485,239.8923,8.2276,2185,0.0000096,0.99839991,0.0000,10/04.7230/2013,2000,g 10.5,4.0
# From MPEC 2015-E14
C/2014 F2 (Tenagra),e,119.0608,267.4482,86.0539,147.1808,0.0005520,0.97068612,0.0000,01/02.3866/2015,2000,g  9.5,4.0
